QIANFAN-9               
1 60387U 24140J   25282.32238407  .00000070  00000+0  89205-4 0  9997
2 60387  88.9755 306.0152 0017159  30.7666 329.4488 13.50973300 58637
QIANFAN-10              
1 60388U 24140K   25282.32652494  .00000057  00000+0  69666-4 0  9998
2 60388  88.9764 305.3558 0014828   9.7388 350.4048 13.50970212 58766
QIANFAN-11              
1 60389U 24140L   25282.28945068  .00000057  00000+0  69294-4 0  9993
2 60389  88.9691 305.9948 0015201  31.4322 328.7734 13.50970857 58418
QIANFAN-12              
1 60390U 24140M   25282.23591008  .00000051  00000+0  59895-4 0  9991
2 60390  88.9735 306.0156 0014298  39.7977 320.4220 13.50971031 58531
QIANFAN-13              
1 60391U 24140N   25282.28119145  .00000058  00000+0  70601-4 0  9990
2 60391  88.9744 306.1029 0014194  42.2180 318.0062 13.50971199 58567
QIANFAN-14              
1 60392U 24140P   25282.30579402  .00000044  00000+0  49139-4 0  9997
2 60392  88.9723 306.0117 0017855  40.5203 319.7274 13.50971789 58575
QIANFAN-15              
1 60393U 24140Q   25282.31402843  .00000059  00000+0  72531-4 0  9991
2 60393  88.9749 305.9521 0013238  29.7576 330.4326 13.50975465 58566
QIANFAN-16              
1 60394U 24140R   25282.30182853  .00000036  00000+0  36799-4 0  9998
2 60394  88.9752 306.0715 0015913  44.8721 315.3713 13.50970801 58471
